Type,Street,City,State,Zip
Drive-in,7756 Brook Court,Fort Lauderdale,Florida,33309
Drive-in,159 Wellington Road,Manchester,New Hampshire,03104
Drive-in,72 Stanley Street,New Haven,Connecticut,06511
Drive-in,7336 64th Highway,Hartman,Arkansas,72840
Drive-in,6204 Desert View Drive,West Richland,Washington,99353
Drive-in,917 Kalanianaole Highway,Kailua,Hawaii,96734
Drive-in,4154 Choctaw Road,Brusly,Louisiana,70719
Drive-in,9615 Virginia Street,Alameda,California,94501
Drive-in,1576 Mokulua Drive,Kailua,Hawaii,96734
Drive-in,709 Butterfield Drive,Spring Creek,Nevada,89815
Drive-in,4027 Baptist Valley Road,Cedar Bluff,Virginia,24609
Drive-in,820 Brown Court,Mount Hope,West Virginia,25880
Drive-in,1409 Buchanan Street,Moberly,Missouri,65270
Drive-in,1409 Sand Dollar Court,Fenton,Missouri,63026
Drive-in,1600 Hahn Avenue,Marshall,Minnesota,56258
Drive-in,7049 Airport Road,Eureka,Montana,59917
Drive-in,53 Arden Avenue,New Castle,Delaware,19720
Drive-in,21 Glenside,Annandale,New Jersey,08801
Drive-in,441 13th Street,Pleasant Grove,Alabama,35127
Drive-in,257 Fireweed Lane,Ketchikan,Alaska,99901
Drive-in,621 Mackaye Harbor Road,Lopez Island,Washington,98261
Drive-in,225 21th Avenue,Sweet Home,Oregon,97386
Drive-in,8821 Pin Oak Avenue,Merced,California,95340
Drive-in,212 Cardinal Street,Tallahassee,Florida,32304
Walk-in,141 Vermont Street,Qulin,Missouri,63961
Walk-in,1411 Highland Valley Circle,Chesterfield,Missouri,63005
Walk-in,718 36th Street Northwest,Bemidji,Minnesota,56601
Walk-in,687 East Parker Lane,Tampa,Florida,33624
Walk-in,93 Main Street,West Lebanon,New Hampshire,03784
Walk-in,46 West Wooster Street,Danbury,Connecticut,6810
Walk-in,74 Cardin Circle,Enola,Arkansas,72047
Walk-in,621 West 10th Street,Port Angeles,Washington,98362
Walk-in,872 Kamalu Road,Kapaa,Hawaii,96746
Walk-in,4159 Cooper Lane,Jackson,Louisiana,70748
Walk-in,86 Belmont Avenue,Palmdale,California,93550
Walk-in,8901 1st Highway,Oakes,North Dakota,58474
Walk-in,3967 Texas Road,Wellsville,Kansas,66092
Walk-in,57 Norma Road,Hampton,New Jersey,08827
Walk-in,45 County 941 Road,Clanton,Alabama,35045
Walk-in,916 Water Street,Ketchikan,Alaska,99615
Walk-in,621 North Lafayette Avenue,Bremerton,Washington,98312
Walk-in,1322 Willow Court,Grants Pass,Oregon,97527
Walk-in,762 Center Street,Sunnyvale,California,94087
Walk-in,15 Carrington Circle,Covington,Georgia,30016
Walk-in,801 Oakland Avenue,Oakland,Iowa,51560
Walk-in,4002 Mahinahina Street,Lahaina,Hawaii,96761
Walk-in,887 Marita Court,Boulder City,Nevada,89005
Walk-in,13450 Sunrise Valley Drive,Herndon,Virginia,20171
Walk-in,825 Main Street,Mount Hope,West Virginia,25880
